<?xml version="1.0" encoding="UTF-8"?>
<kml xmlns="http://www.opengis.net/kml/2.2">
    <Document>

        <Placemark>
            <name>Survey Point</name>
            <Point>
                <coordinates>
                    77.5946,12.9716
                </coordinates>
            </Point>
        </Placemark>

        <Placemark>
            <name>Access Road</name>
            <LineString>
                <coordinates>
                    77.5946,12.9716
                    77.5960,12.9730
                    77.5980,12.9745
                </coordinates>
            </LineString>
        </Placemark>

        <Placemark>
            <name>Mining Area</name>
            <Polygon>
                <outerBoundaryIs>
                    <LinearRing>
                        <coordinates>
                            77.5946,12.9716
                            77.6000,12.9716
                            77.6000,12.9760
                            77.5946,12.9760
                            77.5946,12.9716
                        </coordinates>
                    </LinearRing>
                </outerBoundaryIs>
            </Polygon>
        </Placemark>

    </Document>
</kml>